{
    "links": {
        "self": "http://www.neowsapp.com/rest/v1/neo/3791251?api_key=iIulBulltgU6a56xZRHN4H3l9WmuAYTsLGpBGhQ2"
    },
    "id": "3791251",
    "neo_reference_id": "3791251",
    "name": "(2017 XF1)",
    "designation": "2017 XF1",
    "nasa_jpl_url": "http://ssd.jpl.nasa.gov/sbdb.cgi?sstr=3791251",
    "absolute_magnitude_h": 23.2,
    "estimated_diameter": {
        "kilometers": {
            "estimated_diameter_min": 0.0608912622,
            "estimated_diameter_max": 0.1361570015
        },
        "meters": {
            "estimated_diameter_min": 60.8912622106,
            "estimated_diameter_max": 136.1570015386
        },
        "miles": {
            "estimated_diameter_min": 0.0378360645,
            "estimated_diameter_max": 0.0846040122
        },
        "feet": {
            "estimated_diameter_min": 199.7744887109,
            "estimated_diameter_max": 446.7093369279
        }
    },
    "is_potentially_hazardous_asteroid": false,
    "close_approach_data": [
        {
            "close_approach_date": "2017-12-13",
            "close_approach_date_full": "2017-Dec-13 01:46",
            "epoch_date_close_approach": 1513129560000,
            "relative_velocity": {
                "kilometers_per_second": "3.6621880172",
                "kilometers_per_hour": "13183.8768618834",
                "miles_per_hour": "8191.948375652"
            },
            "miss_distance": {
                "astronomical": "0.3041599191",
                "lunar": "118.3182085299",
                "kilometers": "45501676.036732317",
                "miles": "28273430.4328352946"
            },
            "orbiting_body": "Earth"
        }
    ],
    "orbital_data": {
        "orbit_id": "2",
        "orbit_determination_date": "2017-12-15 06:26:34",
        "first_observation_date": "2017-12-08",
        "last_observation_date": "2017-12-13",
        "data_arc_in_days": 5,
        "observations_used": 16,
        "orbit_uncertainty": "8",
        "minimum_orbit_intersection": ".261535",
        "jupiter_tisserand_invariant": "3.193",
        "epoch_osculation": "2458096.5",
        "eccentricity": ".5241927177694243",
        "semi_major_axis": "2.61698038860465",
        "inclination": "4.214621335207252",
        "ascending_node_longitude": "258.1910893654149",
        "orbital_period": "1546.319131050071",
        "perihelion_distance": "1.245178326352694",
        "perihelion_argument": "189.6604210894189",
        "aphelion_distance": "3.988782450856605",
        "perihelion_time": "2458116.395536094607",
        "mean_anomaly": "355.3681016743325",
        "mean_motion": ".2328109332486445",
        "equinox": "J2000",
        "orbit_class": {
            "orbit_class_type": "AMO",
            "orbit_class_description": "Near-Earth asteroid orbits similar to that of 1221 Amor",
            "orbit_class_range": "1.017 AU < q (perihelion) < 1.3 AU"
        }
    },
    "is_sentry_object": false
}